{
  "type": "FeatureCollection",
  "features": [
    {
      "type": "Feature",
      "properties": {
        "norad_id": 30719,
        "name": "FENGYUN 1C DEB",
        "group": "fengyun-1c-debris",
        "lat": -54.097915163923695,
        "lon": -54.29462011274011,
        "alt_km": 698.4861440997065,
        "timestamp": "2025-12-21T18:54:58.774768+00:00",
        "meta_object_name": "FENGYUN 1C DEB",
        "meta_object_id": "1999-025ASD",
        "meta_epoch": "2025-12-21T03:02:06.375552",
        "meta_mean_motion": 14.59483939,
        "meta_eccentricity": 0.00106523,
        "meta_inclination": 98.8874,
        "meta_ra_of_asc_node": 137.4798,
        "meta_arg_of_pericenter": 172.891,
        "meta_mean_anomaly": 187.2441,
        "meta_ephemeris_type": 0,
        "meta_classification_type": "U",
        "meta_norad_cat_id": 30719,
        "meta_element_set_no": 999,
        "meta_rev_at_epoch": 97571,
        "meta_bstar": 0.0021584794,
        "meta_mean_motion_dot": 0.0001021,
        "meta_mean_motion_ddot": 0,
        "tle_line1": "1 30719U 99025ASD 25355.12646268  .00010210  00000+0  21585-2 0  9996",
        "tle_line2": "2 30719  98.8874 137.4798 0010652 172.8910 187.2441 14.59483939975718"
      },
      "geometry": {
        "type": "Point",
        "coordinates": [
          -54.29462011274011,
          -54.097915163923695
        ]
      }
    },
    {
      "type": "Feature",
      "properties": {
        "norad_id": 30720,
        "name": "FENGYUN 1C DEB",
        "group": "fengyun-1c-debris",
        "lat": -14.407027423482546,
        "lon": 171.9493299635571,
        "alt_km": 782.1255786503925,
        "timestamp": "2025-12-21T18:54:58.774778+00:00",
        "meta_object_name": "FENGYUN 1C DEB",
        "meta_object_id": "1999-025ASE",
        "meta_epoch": "2025-12-20T11:19:26.302944",
        "meta_mean_motion": 14.29137577,
        "meta_eccentricity": 0.00324193,
        "meta_inclination": 99.0359,
        "meta_ra_of_asc_node": 168.2428,
        "meta_arg_of_pericenter": 306.4307,
        "meta_mean_anomaly": 110.1757,
        "meta_ephemeris_type": 0,
        "meta_classification_type": "U",
        "meta_norad_cat_id": 30720,
        "meta_element_set_no": 999,
        "meta_rev_at_epoch": 97599,
        "meta_bstar": 0.00029074255,
        "meta_mean_motion_dot": 6.94e-06,
        "meta_mean_motion_ddot": 0,
        "tle_line1": "1 30720U 99025ASE 25354.47183221  .00000694  00000+0  29074-3 0  9997",
        "tle_line2": "2 30720  99.0359 168.2428 0032419 306.4307 110.1757 14.29137577975999"
      },
      "geometry": {
        "type": "Point",
        "coordinates": [
          171.9493299635571,
          -14.407027423482546
        ]
      }
    },
    {
      "type": "Feature",
      "properties": {
        "norad_id": 30721,
        "name": "FENGYUN 1C DEB",
        "group": "fengyun-1c-debris",
        "lat": 2.978568259406702,
        "lon": -51.81516553423696,
        "alt_km": 670.7033842333904,
        "timestamp": "2025-12-21T18:54:58.774788+00:00",
        "meta_object_name": "FENGYUN 1C DEB",
        "meta_object_id": "1999-025ASF",
        "meta_epoch": "2025-12-21T08:26:51.811584",
        "meta_mean_motion": 14.72179387,
        "meta_eccentricity": 0.00284139,
        "meta_inclination": 98.7097,
        "meta_ra_of_asc_node": 127.2609,
        "meta_arg_of_pericenter": 312.9702,
        "meta_mean_anomaly": 73.7365,
        "meta_ephemeris_type": 0,
        "meta_classification_type": "U",
        "meta_norad_cat_id": 30721,
        "meta_element_set_no": 999,
        "meta_rev_at_epoch": 97969,
        "meta_bstar": 0.0023149471,
        "meta_mean_motion_dot": 0.00014653,
        "meta_mean_motion_ddot": 0,
        "tle_line1": "1 30721U 99025ASF 25355.35198856  .00014653  00000+0  23149-2 0  9992",
        "tle_line2": "2 30721  98.7097 127.2609 0028413 312.9702  73.7365 14.72179387979694"
      },
      "geometry": {
        "type": "Point",
        "coordinates": [
          -51.81516553423696,
          2.978568259406702
        ]
      }
    },
    {
      "type": "Feature",
      "properties": {
        "norad_id": 30723,
        "name": "FENGYUN 1C DEB",
        "group": "fengyun-1c-debris",
        "lat": 45.480815146479294,
        "lon": -88.76593540060557,
        "alt_km": 752.0989189381116,
        "timestamp": "2025-12-21T18:54:58.774797+00:00",
        "meta_object_name": "FENGYUN 1C DEB",
        "meta_object_id": "1999-025ASH",
        "meta_epoch": "2025-12-21T12:12:28.384704",
        "meta_mean_motion": 14.41445591,
        "meta_eccentricity": 0.00161853,
        "meta_inclination": 98.8432,
        "meta_ra_of_asc_node": 81.8357,
        "meta_arg_of_pericenter": 236.3719,
        "meta_mean_anomaly": 247.8974,
        "meta_ephemeris_type": 0,
        "meta_classification_type": "U",
        "meta_norad_cat_id": 30723,
        "meta_element_set_no": 999,
        "meta_rev_at_epoch": 97497,
        "meta_bstar": 0.0016169229,
        "meta_mean_motion_dot": 5.209e-05,
        "meta_mean_motion_ddot": 0,
        "tle_line1": "1 30723U 99025ASH 25355.50866186  .00005209  00000+0  16169-2 0  9990",
        "tle_line2": "2 30723  98.8432  81.8357 0016185 236.3719 247.8974 14.41445591974970"
      },
      "geometry": {
        "type": "Point",
        "coordinates": [
          -88.76593540060557,
          45.480815146479294
        ]
      }
    },
    {
      "type": "Feature",
      "properties": {
        "norad_id": 30724,
        "name": "FENGYUN 1C DEB",
        "group": "fengyun-1c-debris",
        "lat": -78.73819824972816,
        "lon": -54.308744543250576,
        "alt_km": 717.8415082246529,
        "timestamp": "2025-12-21T18:54:58.774807+00:00",
        "meta_object_name": "FENGYUN 1C DEB",
        "meta_object_id": "1999-025ASJ",
        "meta_epoch": "2025-12-21T06:50:28.140288",
        "meta_mean_motion": 14.37068864,
        "meta_eccentricity": 0.0093076,
        "meta_inclination": 99.3156,
        "meta_ra_of_asc_node": 180.6656,
        "meta_arg_of_pericenter": 234.9,
        "meta_mean_anomaly": 306.7375,
        "meta_ephemeris_type": 0,
        "meta_classification_type": "U",
        "meta_norad_cat_id": 30724,
        "meta_element_set_no": 999,
        "meta_rev_at_epoch": 98575,
        "meta_bstar": 0.00034681,
        "meta_mean_motion_dot": 1.029e-05,
        "meta_mean_motion_ddot": 0,
        "tle_line1": "1 30724U 99025ASJ 25355.28504792  .00001029  00000+0  34681-3 0  9994",
        "tle_line2": "2 30724  99.3156 180.6656 0093076 234.9000 306.7375 14.37068864985758"
      },
      "geometry": {
        "type": "Point",
        "coordinates": [
          -54.308744543250576,
          -78.73819824972816
        ]
      }
    },
    {
      "type": "Feature",
      "properties": {
        "norad_id": 30725,
        "name": "FENGYUN 1C DEB",
        "group": "fengyun-1c-debris",
        "lat": 76.98489761681174,
        "lon": -71.95939557855408,
        "alt_km": 835.9770869218519,
        "timestamp": "2025-12-21T18:54:58.774817+00:00",
        "meta_object_name": "FENGYUN 1C DEB",
        "meta_object_id": "1999-025ASK",
        "meta_epoch": "2025-12-18T04:13:47.040960",
        "meta_mean_motion": 14.16096218,
        "meta_eccentricity": 0.00869506,
        "meta_inclination": 99.0078,
        "meta_ra_of_asc_node": 61.0543,
        "meta_arg_of_pericenter": 14.8425,
        "meta_mean_anomaly": 40.2494,
        "meta_ephemeris_type": 0,
        "meta_classification_type": "U",
        "meta_norad_cat_id": 30725,
        "meta_element_set_no": 999,
        "meta_rev_at_epoch": 96425,
        "meta_bstar": 0.00092452617,
        "meta_mean_motion_dot": 1.85e-05,
        "meta_mean_motion_ddot": 0,
        "tle_line1": "1 30725U 99025ASK 25352.17623890  .00001850  00000+0  92453-3 0  9994",
        "tle_line2": "2 30725  99.0078  61.0543 0086950  14.8425  40.2494 14.16096218964250"
      },
      "geometry": {
        "type": "Point",
        "coordinates": [
          -71.95939557855408,
          76.98489761681174
        ]
      }
    },
    {
      "type": "Feature",
      "properties": {
        "norad_id": 30726,
        "name": "FENGYUN 1C DEB",
        "group": "fengyun-1c-debris",
        "lat": -80.5478999004429,
        "lon": 76.53462311954391,
        "alt_km": 850.0230806498594,
        "timestamp": "2025-12-21T18:54:58.774827+00:00",
        "meta_object_name": "FENGYUN 1C DEB",
        "meta_object_id": "1999-025ASL",
        "meta_epoch": "2025-12-21T11:36:26.832960",
        "meta_mean_motion": 14.09332222,
        "meta_eccentricity": 0.00783751,
        "meta_inclination": 99.2676,
        "meta_ra_of_asc_node": 357.4816,
        "meta_arg_of_pericenter": 201.7613,
        "meta_mean_anomaly": 324.9856,
        "meta_ephemeris_type": 0,
        "meta_classification_type": "U",
        "meta_norad_cat_id": 30726,
        "meta_element_set_no": 999,
        "meta_rev_at_epoch": 96106,
        "meta_bstar": 0.00091007035,
        "meta_mean_motion_dot": 1.584e-05,
        "meta_mean_motion_ddot": 0,
        "tle_line1": "1 30726U 99025ASL 25355.48364390  .00001584  00000+0  91007-3 0  9997",
        "tle_line2": "2 30726  99.2676 357.4816 0078375 201.7613 324.9856 14.09332222961060"
      },
      "geometry": {
        "type": "Point",
        "coordinates": [
          76.53462311954391,
          -80.5478999004429
        ]
      }
    }
  ]
}